[{"CCSDS_OMM_VERS":"2.0","COMMENT":"GENERATED VIA SPACE-TRACK.ORG API","CREATION_DATE":"2004-08-15T23:35:47","ORIGINATOR":"18 SPCS","OBJECT_NAME":"ATLAS D DEB","OBJECT_ID":"1966-046BD","CENTER_NAME":"EARTH","REF_FRAME":"TEME","TIME_SYSTEM":"UTC","MEAN_ELEMENT_THEORY":"SGP4","EPOCH":"1966-06-20T21:54:57.675455","MEAN_MOTION":"16.02098545","ECCENTRICITY":"0.00511470","INCLINATION":"28.6887","RA_OF_ASC_NODE":"170.8177","ARG_OF_PERICENTER":"45.3112","MEAN_ANOMALY":"315.1301","EPHEMERIS_TYPE":"0","CLASSIFICATION_TYPE":"U","NORAD_CAT_ID":"2286","ELEMENT_SET_NO":"999","REV_AT_EPOCH":"309","BSTAR":"0.00000000000000","MEAN_MOTION_DOT":"0.00161728","MEAN_MOTION_DDOT":"0.0000627190000","SEMIMAJOR_AXIS":"6646.749","PERIOD":"89.882","APOAPSIS":"302.610","PERIAPSIS":"234.618","OBJECT_TYPE":"DEBRIS","RCS_SIZE":null,"COUNTRY_CODE":null,"LAUNCH_DATE":null,"SITE":null,"DECAY_DATE":"1966-07-04","FILE":"33914","GP_ID":"8720245","TLE_LINE0":"0 ATLAS D DEB","TLE_LINE1":"1 02286U 66046 BD 66171.91316754  .00161728 +62719-4 +00000-0 0  9991","TLE_LINE2":"2 02286 028.6887 170.8177 0051147 045.3112 315.1301 16.02098545003090"},{"CCSDS_OMM_VERS":"2.0","COMMENT":"GENERATED VIA SPACE-TRACK.ORG API","CREATION_DATE":"2004-08-15T23:35:47","ORIGINATOR":"18 SPCS","OBJECT_NAME":"ATLAS D DEB","OBJECT_ID":"1966-046AR","CENTER_NAME":"EARTH","REF_FRAME":"TEME","TIME_SYSTEM":"UTC","MEAN_ELEMENT_THEORY":"SGP4","EPOCH":"1966-06-20T21:57:50.464224","MEAN_MOTION":"15.84884629","ECCENTRICITY":"0.01721640","INCLINATION":"28.6428","RA_OF_ASC_NODE":"171.0365","ARG_OF_PERICENTER":"48.3740","MEAN_ANOMALY":"313.1115","EPHEMERIS_TYPE":"0","CLASSIFICATION_TYPE":"U","NORAD_CAT_ID":"2274","ELEMENT_SET_NO":"999","REV_AT_EPOCH":"306","BSTAR":"0.00000000000000","MEAN_MOTION_DOT":"0.00058165","MEAN_MOTION_DDOT":"0.0000066542000","SEMIMAJOR_AXIS":"6694.790","PERIOD":"90.858","APOAPSIS":"431.916","PERIAPSIS":"201.395","OBJECT_TYPE":"DEBRIS","RCS_SIZE":null,"COUNTRY_CODE":null,"LAUNCH_DATE":null,"SITE":null,"DECAY_DATE":"1966-07-04","FILE":"33914","GP_ID":"8720233","TLE_LINE0":"0 ATLAS D DEB","TLE_LINE1":"1 02274U 66046 AR 66171.91516741  .00058165 +66542-5 +00000-0 0  9995","TLE_LINE2":"2 02274 028.6428 171.0365 0172164 048.3740 313.1115 15.84884629003066"},{"CCSDS_OMM_VERS":"2.0","COMMENT":"GENERATED VIA SPACE-TRACK.ORG API","CREATION_DATE":"2004-08-15T23:35:47","ORIGINATOR":"18 SPCS","OBJECT_NAME":"ATLAS D DEB","OBJECT_ID":"1966-046AF","CENTER_NAME":"EARTH","REF_FRAME":"TEME","TIME_SYSTEM":"UTC","MEAN_ELEMENT_THEORY":"SGP4","EPOCH":"1966-06-20T22:24:21.664512","MEAN_MOTION":"15.99188757","ECCENTRICITY":"0.00317800","INCLINATION":"28.7444","RA_OF_ASC_NODE":"170.4685","ARG_OF_PERICENTER":"143.0431","MEAN_ANOMALY":"217.2086","EPHEMERIS_TYPE":"0","CLASSIFICATION_TYPE":"U","NORAD_CAT_ID":"2264","ELEMENT_SET_NO":"999","REV_AT_EPOCH":"309","BSTAR":"0.00000000000000","MEAN_MOTION_DOT":"0.00943983","MEAN_MOTION_DDOT":"0.0020579000000","SEMIMAJOR_AXIS":"6654.809","PERIOD":"90.045","APOAPSIS":"297.823","PERIAPSIS":"255.525","OBJECT_TYPE":"DEBRIS","RCS_SIZE":null,"COUNTRY_CODE":null,"LAUNCH_DATE":null,"SITE":null,"DECAY_DATE":"1966-07-04","FILE":"33914","GP_ID":"8720228","TLE_LINE0":"0 ATLAS D DEB","TLE_LINE1":"1 02264U 66046 AF 66171.93358408  .00943983 +20579-2 +00000-0 0  9998","TLE_LINE2":"2 02264 028.7444 170.4685 0031780 143.0431 217.2086 15.99188757003099"},{"CCSDS_OMM_VERS":"2.0","COMMENT":"GENERATED VIA SPACE-TRACK.ORG API","CREATION_DATE":"2004-08-15T23:35:47","ORIGINATOR":"18 SPCS","OBJECT_NAME":"ATLAS D DEB","OBJECT_ID":"1966-046H","CENTER_NAME":"EARTH","REF_FRAME":"TEME","TIME_SYSTEM":"UTC","MEAN_ELEMENT_THEORY":"SGP4","EPOCH":"1966-06-20T22:33:10.664064","MEAN_MOTION":"15.63285534","ECCENTRICITY":"0.01989980","INCLINATION":"28.7748","RA_OF_ASC_NODE":"171.9893","ARG_OF_PERICENTER":"118.0156","MEAN_ANOMALY":"244.0241","EPHEMERIS_TYPE":"0","CLASSIFICATION_TYPE":"U","NORAD_CAT_ID":"2231","ELEMENT_SET_NO":"999","REV_AT_EPOCH":"307","BSTAR":"0.00000000000000","MEAN_MOTION_DOT":"0.02110178","MEAN_MOTION_DDOT":"0.0072621000000","SEMIMAJOR_AXIS":"6756.315","PERIOD":"92.113","APOAPSIS":"512.629","PERIAPSIS":"243.731","OBJECT_TYPE":"DEBRIS","RCS_SIZE":null,"COUNTRY_CODE":null,"LAUNCH_DATE":null,"SITE":null,"DECAY_DATE":"1966-06-30","FILE":"33914","GP_ID":"8720109","TLE_LINE0":"0 ATLAS D DEB","TLE_LINE1":"1 02231U 66046  H 66171.93970676  .02110178 +72621-2 +00000-0 0  9998","TLE_LINE2":"2 02231 028.7748 171.9893 0198998 118.0156 244.0241 15.63285534003079"},{"CCSDS_OMM_VERS":"2.0","COMMENT":"GENERATED VIA SPACE-TRACK.ORG API","CREATION_DATE":"2004-08-15T23:35:47","ORIGINATOR":"18 SPCS","OBJECT_NAME":"ATLAS D DEB","OBJECT_ID":"1966-046AW","CENTER_NAME":"EARTH","REF_FRAME":"TEME","TIME_SYSTEM":"UTC","MEAN_ELEMENT_THEORY":"SGP4","EPOCH":"1966-06-20T22:36:54.325152","MEAN_MOTION":"15.99860824","ECCENTRICITY":"0.05339010","INCLINATION":"28.6605","RA_OF_ASC_NODE":"172.9668","ARG_OF_PERICENTER":"24.7026","MEAN_ANOMALY":"337.8059","EPHEMERIS_TYPE":"0","CLASSIFICATION_TYPE":"U","NORAD_CAT_ID":"2279","ELEMENT_SET_NO":"999","REV_AT_EPOCH":"309","BSTAR":"0.00000000000000","MEAN_MOTION_DOT":"0.00204910","MEAN_MOTION_DDOT":"0.0000977980000","SEMIMAJOR_AXIS":"6652.945","PERIOD":"90.007","APOAPSIS":"630.012","PERIAPSIS":"-80.390","OBJECT_TYPE":"DEBRIS","RCS_SIZE":null,"COUNTRY_CODE":null,"LAUNCH_DATE":null,"SITE":null,"DECAY_DATE":"1966-07-04","FILE":"33914","GP_ID":"8720238","TLE_LINE0":"0 ATLAS D DEB","TLE_LINE1":"1 02279U 66046 AW 66171.94229543  .00204910 +97798-4 +00000-0 0  9991","TLE_LINE2":"2 02279 028.6605 172.9668 0533901 024.7026 337.8059 15.99860824003099"},{"CCSDS_OMM_VERS":"2.0","COMMENT":"GENERATED VIA SPACE-TRACK.ORG API","CREATION_DATE":"2004-08-15T23:35:47","ORIGINATOR":"18 SPCS","OBJECT_NAME":"ATLAS D DEB","OBJECT_ID":"1966-046AN","CENTER_NAME":"EARTH","REF_FRAME":"TEME","TIME_SYSTEM":"UTC","MEAN_ELEMENT_THEORY":"SGP4","EPOCH":"1966-06-20T23:17:48.823871","MEAN_MOTION":"15.12789532","ECCENTRICITY":"0.04113480","INCLINATION":"29.8029","RA_OF_ASC_NODE":"174.9271","ARG_OF_PERICENTER":"39.7370","MEAN_ANOMALY":"323.2367","EPHEMERIS_TYPE":"0","CLASSIFICATION_TYPE":"U","NORAD_CAT_ID":"2271","ELEMENT_SET_NO":"999","REV_AT_EPOCH":"307","BSTAR":"0.00000000000000","MEAN_MOTION_DOT":"0.27313137","MEAN_MOTION_DDOT":"475.6100000000000","SEMIMAJOR_AXIS":"6905.838","PERIOD":"95.188","APOAPSIS":"811.774","PERIAPSIS":"243.633","OBJECT_TYPE":"DEBRIS","RCS_SIZE":null,"COUNTRY_CODE":null,"LAUNCH_DATE":null,"SITE":null,"DECAY_DATE":"1966-07-04","FILE":"33914","GP_ID":"8720230","TLE_LINE0":"0 ATLAS D DEB","TLE_LINE1":"1 02271U 66046 AN 66171.97070398  .27313137 +4756103 +00000-0 0  9990","TLE_LINE2":"2 02271 029.8029 174.9271 0411348 039.7370 323.2367 15.12789532003074"},{"CCSDS_OMM_VERS":"2.0","COMMENT":"GENERATED VIA SPACE-TRACK.ORG API","CREATION_DATE":"2004-08-15T23:35:47","ORIGINATOR":"18 SPCS","OBJECT_NAME":"ATLAS D DEB","OBJECT_ID":"1966-046U","CENTER_NAME":"EARTH","REF_FRAME":"TEME","TIME_SYSTEM":"UTC","MEAN_ELEMENT_THEORY":"SGP4","EPOCH":"1966-06-20T23:40:10.630560","MEAN_MOTION":"16.09259481","ECCENTRICITY":"0.00161920","INCLINATION":"28.2788","RA_OF_ASC_NODE":"170.4236","ARG_OF_PERICENTER":"65.7254","MEAN_ANOMALY":"294.4555","EPHEMERIS_TYPE":"0","CLASSIFICATION_TYPE":"U","NORAD_CAT_ID":"2242","ELEMENT_SET_NO":"999","REV_AT_EPOCH":"310","BSTAR":"0.00000000000000","MEAN_MOTION_DOT":"0.00955941","MEAN_MOTION_DDOT":"0.0024252000000","SEMIMAJOR_AXIS":"6627.016","PERIOD":"89.482","APOAPSIS":"259.612","PERIAPSIS":"238.151","OBJECT_TYPE":"DEBRIS","RCS_SIZE":null,"COUNTRY_CODE":null,"LAUNCH_DATE":null,"SITE":null,"DECAY_DATE":"1966-06-27","FILE":"33914","GP_ID":"8720120","TLE_LINE0":"0 ATLAS D DEB","TLE_LINE1":"1 02242U 66046  U 66171.98623415  .00955941 +24252-2 +00000-0 0  9991","TLE_LINE2":"2 02242 028.2788 170.4236 0016192 065.7254 294.4555 16.09259481003101"},{"CCSDS_OMM_VERS":"2.0","COMMENT":"GENERATED VIA SPACE-TRACK.ORG API","CREATION_DATE":"2004-08-15T23:35:47","ORIGINATOR":"18 SPCS","OBJECT_NAME":"ATLAS D DEB","OBJECT_ID":"1966-046Q","CENTER_NAME":"EARTH","REF_FRAME":"TEME","TIME_SYSTEM":"UTC","MEAN_ELEMENT_THEORY":"SGP4","EPOCH":"1966-06-21T03:31:06.577824","MEAN_MOTION":"16.19514394","ECCENTRICITY":"0.01385190","INCLINATION":"28.9146","RA_OF_ASC_NODE":"170.0104","ARG_OF_PERICENTER":"329.4450","MEAN_ANOMALY":"29.7975","EPHEMERIS_TYPE":"0","CLASSIFICATION_TYPE":"U","NORAD_CAT_ID":"2238","ELEMENT_SET_NO":"999","REV_AT_EPOCH":"313","BSTAR":"0.00000000000000","MEAN_MOTION_DOT":"0.00502623","MEAN_MOTION_DDOT":"0.0007975500000","SEMIMAJOR_AXIS":"6599.011","PERIOD":"88.915","APOAPSIS":"312.285","PERIAPSIS":"129.468","OBJECT_TYPE":"DEBRIS","RCS_SIZE":null,"COUNTRY_CODE":null,"LAUNCH_DATE":null,"SITE":null,"DECAY_DATE":"1966-06-22","FILE":"33914","GP_ID":"8720116","TLE_LINE0":"0 ATLAS D DEB","TLE_LINE1":"1 02238U 66046  Q 66172.14660391  .00502623 +79755-3 +00000-0 0  9993","TLE_LINE2":"2 02238 028.9146 170.0104 0138519 329.4450 029.7975 16.19514394003133"}]